[{"zip":"27006","city":"Advance"},{"zip":"27007","city":"Ararat"},{"zip":"27009","city":"Belews Creek"},{"zip":"27011","city":"Boonville"},{"zip":"27012","city":"Clemmons"},{"zip":"27013","city":"Cleveland"},{"zip":"27014","city":"Cooleemee"},{"zip":"27016","city":"Danbury"},{"zip":"27017","city":"Dobson"},{"zip":"27018","city":"East Bend"},{"zip":"27019","city":"Germanton"},{"zip":"27020","city":"Hamptonville"},{"zip":"27021","city":"King"},{"zip":"27022","city":"Lawsonville"},{"zip":"27023","city":"Lewisville"},{"zip":"27024","city":"Lowgap"},{"zip":"27025","city":"Madison"},{"zip":"27027","city":"Mayodan"},{"zip":"27028","city":"Mocksville"},{"zip":"27030","city":"Mount Airy"},{"zip":"27040","city":"Pfafftown"},{"zip":"27041","city":"Pilot Mountain"},{"zip":"27042","city":"Pine Hall"},{"zip":"27043","city":"Pinnacle"},{"zip":"27045","city":"Rural Hall"},{"zip":"27046","city":"Sandy Ridge"},{"zip":"27047","city":"Siloam"},{"zip":"27048","city":"Stoneville"},{"zip":"27050","city":"Tobaccoville"},{"zip":"27051","city":"Walkertown"},{"zip":"27052","city":"Walnut Cove"},{"zip":"27053","city":"Westfield"},{"zip":"27054","city":"Woodleaf"},{"zip":"27055","city":"Yadkinville"},{"zip":"27101","city":"Winston Salem"},{"zip":"27103","city":"Winston Salem"},{"zip":"27104","city":"Winston Salem"},{"zip":"27105","city":"Winston Salem"},{"zip":"27106","city":"Winston Salem"},{"zip":"27107","city":"Winston Salem"},{"zip":"27109","city":"Winston Salem"},{"zip":"27110","city":"Winston Salem"},{"zip":"27127","city":"Winston Salem"},{"zip":"27201","city":"Alamance"},{"zip":"27202","city":"Altamahaw"},{"zip":"27203","city":"Asheboro"},{"zip":"27205","city":"Asheboro"},{"zip":"27207","city":"Bear Creek"},{"zip":"27208","city":"Bennett"},{"zip":"27209","city":"Biscoe"},{"zip":"27212","city":"Blanch"},{"zip":"27213","city":"Bonlee"},{"zip":"27214","city":"Browns Summit"},{"zip":"27215","city":"Burlington"},{"zip":"27217","city":"Burlington"},{"zip":"27229","city":"Candor"},{"zip":"27231","city":"Cedar Grove"},{"zip":"27233","city":"Climax"},{"zip":"27235","city":"Colfax"},{"zip":"27239","city":"Denton"},{"zip":"27242","city":"Eagle Springs"},{"zip":"27243","city":"Efland"},{"zip":"27244","city":"Elon"},{"zip":"27247","city":"Ether"},{"zip":"27248","city":"Franklinville"},{"zip":"27249","city":"Gibsonville"},{"zip":"27252","city":"Goldston"},{"zip":"27253","city":"Graham"},{"zip":"27256","city":"Gulf"},{"zip":"27258","city":"Haw River"},{"zip":"27259","city":"Highfalls"},{"zip":"27260","city":"High Point"},{"zip":"27262","city":"High Point"},{"zip":"27263","city":"High Point"},{"zip":"27265","city":"High Point"},{"zip":"27268","city":"High Point"},{"zip":"27278","city":"Hillsborough"},{"zip":"27281","city":"Jackson Springs"},{"zip":"27282","city":"Jamestown"},{"zip":"27283","city":"Julian"},{"zip":"27284","city":"Kernersville"},{"zip":"27288","city":"Eden"},{"zip":"27291","city":"Leasburg"},{"zip":"27292","city":"Lexington"},{"zip":"27295","city":"Lexington"},{"zip":"27298","city":"Liberty"},{"zip":"27299","city":"Linwood"},{"zip":"27301","city":"McLeansville"},{"zip":"27302","city":"Mebane"},{"zip":"27305","city":"Milton"},{"zip":"27306","city":"Mount Gilead"},{"zip":"27310","city":"Oak Ridge"},{"zip":"27311","city":"Pelham"},{"zip":"27312","city":"Pittsboro"},{"zip":"27313","city":"Pleasant Garden"},{"zip":"27314","city":"Prospect Hill"},{"zip":"27315","city":"Providence"},{"zip":"27316","city":"Ramseur"},{"zip":"27317","city":"Randleman"},{"zip":"27320","city":"Reidsville"},{"zip":"27325","city":"Robbins"},{"zip":"27326","city":"Ruffin"},{"zip":"27330","city":"Sanford"},{"zip":"27332","city":"Sanford"},{"zip":"27340","city":"Saxapahaw"},{"zip":"27341","city":"Seagrove"},{"zip":"27342","city":"Sedalia"},{"zip":"27343","city":"Semora"},{"zip":"27344","city":"Siler City"},{"zip":"27349","city":"Snow Camp"},{"zip":"27350","city":"Sophia"},{"zip":"27351","city":"Southmont"},{"zip":"27355","city":"Staley"},{"zip":"27356","city":"Star"},{"zip":"27357","city":"Stokesdale"},{"zip":"27358","city":"Summerfield"},{"zip":"27360","city":"Thomasville"},{"zip":"27370","city":"Trinity"},{"zip":"27371","city":"Troy"},{"zip":"27374","city":"Welcome"},{"zip":"27376","city":"West End"},{"zip":"27377","city":"Whitsett"},{"zip":"27379","city":"Yanceyville"},{"zip":"27401","city":"Greensboro"},{"zip":"27403","city":"Greensboro"},{"zip":"27405","city":"Greensboro"},{"zip":"27406","city":"Greensboro"},{"zip":"27407","city":"Greensboro"},{"zip":"27408","city":"Greensboro"},{"zip":"27409","city":"Greensboro"},{"zip":"27410","city":"Greensboro"},{"zip":"27411","city":"Greensboro"},{"zip":"27412","city":"Greensboro"},{"zip":"27455","city":"Greensboro"},{"zip":"27501","city":"Angier"},{"zip":"27502","city":"Apex"},{"zip":"27503","city":"Bahama"},{"zip":"27504","city":"Benson"},{"zip":"27505","city":"Broadway"},{"zip":"27506","city":"Buies Creek"},{"zip":"27507","city":"Bullock"},{"zip":"27508","city":"Bunn"},{"zip":"27509","city":"Butner"},{"zip":"27510","city":"Carrboro"},{"zip":"27511","city":"Cary"},{"zip":"27513","city":"Cary"},{"zip":"27514","city":"Chapel Hill"},{"zip":"27516","city":"Chapel Hill"},{"zip":"27517","city":"Chapel Hill"},{"zip":"27518","city":"Cary"},{"zip":"27519","city":"Cary"},{"zip":"27520","city":"Clayton"},{"zip":"27521","city":"Coats"},{"zip":"27522","city":"Creedmoor"},{"zip":"27523","city":"Apex"},{"zip":"27524","city":"Four Oaks"},{"zip":"27525","city":"Franklinton"},{"zip":"27526","city":"Fuquay Varina"},{"zip":"27527","city":"Clayton"},{"zip":"27529","city":"Garner"},{"zip":"27530","city":"Goldsboro"},{"zip":"27531","city":"Goldsboro"},{"zip":"27533","city":"Goldsboro"},{"zip":"27534","city":"Goldsboro"},{"zip":"27536","city":"Henderson"},{"zip":"27537","city":"Henderson"},{"zip":"27539","city":"Apex"},{"zip":"27540","city":"Holly Springs"},{"zip":"27541","city":"Hurdle Mills"},{"zip":"27542","city":"Kenly"},{"zip":"27544","city":"Kittrell"},{"zip":"27545","city":"Knightdale"},{"zip":"27546","city":"Lillington"},{"zip":"27549","city":"Louisburg"},{"zip":"27551","city":"Macon"},{"zip":"27553","city":"Manson"},{"zip":"27555","city":"Micro"},{"zip":"27556","city":"Middleburg"},{"zip":"27557","city":"Middlesex"},{"zip":"27559","city":"Moncure"},{"zip":"27560","city":"Morrisville"},{"zip":"27562","city":"New Hill"},{"zip":"27563","city":"Norlina"},{"zip":"27565","city":"Oxford"},{"zip":"27568","city":"Pine Level"},{"zip":"27569","city":"Princeton"},{"zip":"27570","city":"Ridgeway"},{"zip":"27571","city":"Rolesville"},{"zip":"27572","city":"Rougemont"},{"zip":"27573","city":"Roxboro"},{"zip":"27574","city":"Roxboro"},{"zip":"27576","city":"Selma"},{"zip":"27577","city":"Smithfield"},{"zip":"27581","city":"Stem"},{"zip":"27582","city":"Stovall"},{"zip":"27583","city":"Timberlake"},{"zip":"27584","city":"Townsville"},{"zip":"27587","city":"Wake Forest"},{"zip":"27589","city":"Warrenton"},{"zip":"27591","city":"Wendell"},{"zip":"27592","city":"Willow Spring"},{"zip":"27593","city":"Wilsons Mills"},{"zip":"27594","city":"Wise"},{"zip":"27596","city":"Youngsville"},{"zip":"27597","city":"Zebulon"},{"zip":"27599","city":"Chapel Hill"},{"zip":"27601","city":"Raleigh"},{"zip":"27603","city":"Raleigh"},{"zip":"27604","city":"Raleigh"},{"zip":"27605","city":"Raleigh"},{"zip":"27606","city":"Raleigh"},{"zip":"27607","city":"Raleigh"},{"zip":"27608","city":"Raleigh"},{"zip":"27609","city":"Raleigh"},{"zip":"27610","city":"Raleigh"},{"zip":"27612","city":"Raleigh"},{"zip":"27613","city":"Raleigh"},{"zip":"27614","city":"Raleigh"},{"zip":"27615","city":"Raleigh"},{"zip":"27616","city":"Raleigh"},{"zip":"27617","city":"Raleigh"},{"zip":"27695","city":"Raleigh"},{"zip":"27697","city":"Raleigh"},{"zip":"27701","city":"Durham"},{"zip":"27703","city":"Durham"},{"zip":"27704","city":"Durham"},{"zip":"27705","city":"Durham"},{"zip":"27707","city":"Durham"},{"zip":"27708","city":"Durham"},{"zip":"27709","city":"Durham"},{"zip":"27712","city":"Durham"},{"zip":"27713","city":"Durham"},{"zip":"27801","city":"Rocky Mount"},{"zip":"27803","city":"Rocky Mount"},{"zip":"27804","city":"Rocky Mount"},{"zip":"27805","city":"Aulander"},{"zip":"27806","city":"Aurora"},{"zip":"27807","city":"Bailey"},{"zip":"27808","city":"Bath"},{"zip":"27809","city":"Battleboro"},{"zip":"27810","city":"Belhaven"},{"zip":"27812","city":"Bethel"},{"zip":"27813","city":"Black Creek"},{"zip":"27814","city":"Blounts Creek"},{"zip":"27815","city":"Rocky Mount"},{"zip":"27816","city":"Castalia"},{"zip":"27817","city":"Chocowinity"},{"zip":"27818","city":"Como"},{"zip":"27819","city":"Conetoe"},{"zip":"27820","city":"Conway"},{"zip":"27821","city":"Edward"},{"zip":"27822","city":"Elm City"},{"zip":"27823","city":"Enfield"},{"zip":"27824","city":"Engelhard"},{"zip":"27825","city":"Everetts"},{"zip":"27826","city":"Fairfield"},{"zip":"27827","city":"Falkland"},{"zip":"27828","city":"Farmville"},{"zip":"27829","city":"Fountain"},{"zip":"27830","city":"Fremont"},{"zip":"27831","city":"Garysburg"},{"zip":"27832","city":"Gaston"},{"zip":"27834","city":"Greenville"},{"zip":"27837","city":"Grimesland"},{"zip":"27839","city":"Halifax"},{"zip":"27840","city":"Hamilton"},{"zip":"27841","city":"Hassell"},{"zip":"27842","city":"Henrico"},{"zip":"27843","city":"Hobgood"},{"zip":"27844","city":"Hollister"},{"zip":"27845","city":"Jackson"},{"zip":"27846","city":"Jamesville"},{"zip":"27847","city":"Kelford"},{"zip":"27849","city":"Lewiston Woodville"},{"zip":"27850","city":"Littleton"},{"zip":"27851","city":"Lucama"},{"zip":"27852","city":"Macclesfield"},{"zip":"27853","city":"Margarettsville"},{"zip":"27855","city":"Murfreesboro"},{"zip":"27856","city":"Nashville"},{"zip":"27857","city":"Oak City"},{"zip":"27858","city":"Greenville"},{"zip":"27860","city":"Pantego"},{"zip":"27861","city":"Parmele"},{"zip":"27862","city":"Pendleton"},{"zip":"27863","city":"Pikeville"},{"zip":"27864","city":"Pinetops"},{"zip":"27865","city":"Pinetown"},{"zip":"27866","city":"Pleasant Hill"},{"zip":"27869","city":"Rich Square"},{"zip":"27870","city":"Roanoke Rapids"},{"zip":"27871","city":"Robersonville"},{"zip":"27872","city":"Roxobel"},{"zip":"27873","city":"Saratoga"},{"zip":"27874","city":"Scotland Neck"},{"zip":"27875","city":"Scranton"},{"zip":"27876","city":"Seaboard"},{"zip":"27877","city":"Severn"},{"zip":"27878","city":"Sharpsburg"},{"zip":"27879","city":"Simpson"},{"zip":"27880","city":"Sims"},{"zip":"27881","city":"Speed"},{"zip":"27882","city":"Spring Hope"},{"zip":"27883","city":"Stantonsburg"},{"zip":"27884","city":"Stokes"},{"zip":"27885","city":"Swanquarter"},{"zip":"27886","city":"Tarboro"},{"zip":"27888","city":"Walstonburg"},{"zip":"27889","city":"Washington"},{"zip":"27890","city":"Weldon"},{"zip":"27891","city":"Whitakers"},{"zip":"27892","city":"Williamston"},{"zip":"27893","city":"Wilson"},{"zip":"27896","city":"Wilson"},{"zip":"27897","city":"Woodland"},{"zip":"27909","city":"Elizabeth City"},{"zip":"27910","city":"Ahoskie"},{"zip":"27915","city":"Avon"},{"zip":"27916","city":"Aydlett"},{"zip":"27917","city":"Barco"},{"zip":"27919","city":"Belvidere"},{"zip":"27920","city":"Buxton"},{"zip":"27921","city":"Camden"},{"zip":"27922","city":"Cofield"},{"zip":"27923","city":"Coinjock"},{"zip":"27924","city":"Colerain"},{"zip":"27925","city":"Columbia"},{"zip":"27926","city":"Corapeake"},{"zip":"27927","city":"Corolla"},{"zip":"27928","city":"Creswell"},{"zip":"27929","city":"Currituck"},{"zip":"27932","city":"Edenton"},{"zip":"27935","city":"Eure"},{"zip":"27936","city":"Frisco"},{"zip":"27937","city":"Gates"},{"zip":"27938","city":"Gatesville"},{"zip":"27939","city":"Grandy"},{"zip":"27941","city":"Harbinger"},{"zip":"27942","city":"Harrellsville"},{"zip":"27943","city":"Hatteras"},{"zip":"27944","city":"Hertford"},{"zip":"27946","city":"Hobbsville"},{"zip":"27947","city":"Jarvisburg"},{"zip":"27948","city":"Kill Devil Hills"},{"zip":"27949","city":"Kitty Hawk"},{"zip":"27950","city":"Knotts Island"},{"zip":"27953","city":"Manns Harbor"},{"zip":"27954","city":"Manteo"},{"zip":"27956","city":"Maple"},{"zip":"27957","city":"Merry Hill"},{"zip":"27958","city":"Moyock"},{"zip":"27959","city":"Nags Head"},{"zip":"27960","city":"Ocracoke"},{"zip":"27962","city":"Plymouth"},{"zip":"27964","city":"Point Harbor"},{"zip":"27965","city":"Poplar Branch"},{"zip":"27966","city":"Powells Point"},{"zip":"27967","city":"Powellsville"},{"zip":"27968","city":"Rodanthe"},{"zip":"27969","city":"Roduco"},{"zip":"27970","city":"Roper"},{"zip":"27972","city":"Salvo"},{"zip":"27973","city":"Shawboro"},{"zip":"27974","city":"Shiloh"},{"zip":"27976","city":"South Mills"},{"zip":"27978","city":"Stumpy Point"},{"zip":"27979","city":"Sunbury"},{"zip":"27980","city":"Tyner"},{"zip":"27981","city":"Wanchese"},{"zip":"27982","city":"Waves"},{"zip":"27983","city":"Windsor"},{"zip":"27985","city":"Winfall"},{"zip":"27986","city":"Winton"},{"zip":"28001","city":"Albemarle"},{"zip":"28006","city":"Alexis"},{"zip":"28007","city":"Ansonville"},{"zip":"28009","city":"Badin"},{"zip":"28012","city":"Belmont"},{"zip":"28016","city":"Bessemer City"},{"zip":"28017","city":"Boiling Springs"},{"zip":"28018","city":"Bostic"},{"zip":"28019","city":"Caroleen"},{"zip":"28020","city":"Casar"},{"zip":"28021","city":"Cherryville"},{"zip":"28023","city":"China Grove"},{"zip":"28024","city":"Cliffside"},{"zip":"28025","city":"Concord"},{"zip":"28027","city":"Concord"},{"zip":"28031","city":"Cornelius"},{"zip":"28032","city":"Cramerton"},{"zip":"28033","city":"Crouse"},{"zip":"28034","city":"Dallas"},{"zip":"28036","city":"Davidson"},{"zip":"28037","city":"Denver"},{"zip":"28039","city":"East Spencer"},{"zip":"28040","city":"Ellenboro"},{"zip":"28041","city":"Faith"},{"zip":"28042","city":"Fallston"},{"zip":"28043","city":"Forest City"},{"zip":"28052","city":"Gastonia"},{"zip":"28054","city":"Gastonia"},{"zip":"28056","city":"Gastonia"},{"zip":"28071","city":"Gold Hill"},{"zip":"28072","city":"Granite Quarry"},{"zip":"28073","city":"Grover"},{"zip":"28074","city":"Harris"},{"zip":"28075","city":"Harrisburg"},{"zip":"28076","city":"Henrietta"},{"zip":"28077","city":"High Shoals"},{"zip":"28078","city":"Huntersville"},{"zip":"28079","city":"Indian Trail"},{"zip":"28080","city":"Iron Station"},{"zip":"28081","city":"Kannapolis"},{"zip":"28083","city":"Kannapolis"},{"zip":"28086","city":"Kings Mountain"},{"zip":"28088","city":"Landis"},{"zip":"28089","city":"Lattimore"},{"zip":"28090","city":"Lawndale"},{"zip":"28091","city":"Lilesville"},{"zip":"28092","city":"Lincolnton"},{"zip":"28097","city":"Locust"},{"zip":"28098","city":"Lowell"},{"zip":"28101","city":"McAdenville"},{"zip":"28102","city":"McFarlan"},{"zip":"28103","city":"Marshville"},{"zip":"28104","city":"Matthews"},{"zip":"28105","city":"Matthews"},{"zip":"28107","city":"Midland"},{"zip":"28108","city":"Mineral Springs"},{"zip":"28109","city":"Misenheimer"},{"zip":"28110","city":"Monroe"},{"zip":"28112","city":"Monroe"},{"zip":"28114","city":"Mooresboro"},{"zip":"28115","city":"Mooresville"},{"zip":"28117","city":"Mooresville"},{"zip":"28119","city":"Morven"},{"zip":"28120","city":"Mount Holly"},{"zip":"28124","city":"Mount Pleasant"},{"zip":"28125","city":"Mount Ulla"},{"zip":"28127","city":"New London"},{"zip":"28128","city":"Norwood"},{"zip":"28129","city":"Oakboro"},{"zip":"28133","city":"Peachland"},{"zip":"28134","city":"Pineville"},{"zip":"28135","city":"Polkton"},{"zip":"28136","city":"Polkville"},{"zip":"28137","city":"Richfield"},{"zip":"28138","city":"Rockwell"},{"zip":"28139","city":"Rutherfordton"},{"zip":"28144","city":"Salisbury"},{"zip":"28146","city":"Salisbury"},{"zip":"28147","city":"Salisbury"},{"zip":"28150","city":"Shelby"},{"zip":"28152","city":"Shelby"},{"zip":"28159","city":"Spencer"},{"zip":"28160","city":"Spindale"},{"zip":"28163","city":"Stanfield"},{"zip":"28164","city":"Stanley"},{"zip":"28166","city":"Troutman"},{"zip":"28167","city":"Union Mills"},{"zip":"28168","city":"Vale"},{"zip":"28169","city":"Waco"},{"zip":"28170","city":"Wadesboro"},{"zip":"28173","city":"Waxhaw"},{"zip":"28174","city":"Wingate"},{"zip":"28202","city":"Charlotte"},{"zip":"28203","city":"Charlotte"},{"zip":"28204","city":"Charlotte"},{"zip":"28205","city":"Charlotte"},{"zip":"28206","city":"Charlotte"},{"zip":"28207","city":"Charlotte"},{"zip":"28208","city":"Charlotte"},{"zip":"28209","city":"Charlotte"},{"zip":"28210","city":"Charlotte"},{"zip":"28211","city":"Charlotte"},{"zip":"28212","city":"Charlotte"},{"zip":"28213","city":"Charlotte"},{"zip":"28214","city":"Charlotte"},{"zip":"28215","city":"Charlotte"},{"zip":"28216","city":"Charlotte"},{"zip":"28217","city":"Charlotte"},{"zip":"28223","city":"Charlotte"},{"zip":"28226","city":"Charlotte"},{"zip":"28227","city":"Charlotte"},{"zip":"28244","city":"Charlotte"},{"zip":"28262","city":"Charlotte"},{"zip":"28269","city":"Charlotte"},{"zip":"28270","city":"Charlotte"},{"zip":"28273","city":"Charlotte"},{"zip":"28274","city":"Charlotte"},{"zip":"28277","city":"Charlotte"},{"zip":"28278","city":"Charlotte"},{"zip":"28280","city":"Charlotte"},{"zip":"28282","city":"Charlotte"},{"zip":"28301","city":"Fayetteville"},{"zip":"28303","city":"Fayetteville"},{"zip":"28304","city":"Fayetteville"},{"zip":"28305","city":"Fayetteville"},{"zip":"28306","city":"Fayetteville"},{"zip":"28307","city":"Fort Bragg"},{"zip":"28308","city":"Pope Army Airfield"},{"zip":"28310","city":"Fort Bragg"},{"zip":"28311","city":"Fayetteville"},{"zip":"28312","city":"Fayetteville"},{"zip":"28314","city":"Fayetteville"},{"zip":"28315","city":"Aberdeen"},{"zip":"28318","city":"Autryville"},{"zip":"28320","city":"Bladenboro"},{"zip":"28323","city":"Bunnlevel"},{"zip":"28325","city":"Calypso"},{"zip":"28326","city":"Cameron"},{"zip":"28327","city":"Carthage"},{"zip":"28328","city":"Clinton"},{"zip":"28330","city":"Cordova"},{"zip":"28331","city":"Cumberland"},{"zip":"28332","city":"Dublin"},{"zip":"28333","city":"Dudley"},{"zip":"28334","city":"Dunn"},{"zip":"28337","city":"Elizabethtown"},{"zip":"28338","city":"Ellerbe"},{"zip":"28339","city":"Erwin"},{"zip":"28340","city":"Fairmont"},{"zip":"28341","city":"Faison"},{"zip":"28342","city":"Falcon"},{"zip":"28343","city":"Gibson"},{"zip":"28344","city":"Godwin"},{"zip":"28345","city":"Hamlet"},{"zip":"28347","city":"Hoffman"},{"zip":"28348","city":"Hope Mills"},{"zip":"28349","city":"Kenansville"},{"zip":"28350","city":"Lakeview"},{"zip":"28351","city":"Laurel Hill"},{"zip":"28352","city":"Laurinburg"},{"zip":"28355","city":"Lemon Springs"},{"zip":"28356","city":"Linden"},{"zip":"28357","city":"Lumber Bridge"},{"zip":"28358","city":"Lumberton"},{"zip":"28359","city":"Lumberton"},{"zip":"28360","city":"Lumberton"},{"zip":"28362","city":"Marietta"},{"zip":"28363","city":"Marston"},{"zip":"28364","city":"Maxton"},{"zip":"28365","city":"Mount Olive"},{"zip":"28366","city":"Newton Grove"},{"zip":"28367","city":"Norman"},{"zip":"28368","city":"Olivia"},{"zip":"28369","city":"Orrum"},{"zip":"28371","city":"Parkton"},{"zip":"28372","city":"Pembroke"},{"zip":"28373","city":"Pinebluff"},{"zip":"28374","city":"Pinehurst"},{"zip":"28375","city":"Proctorville"},{"zip":"28376","city":"Raeford"},{"zip":"28377","city":"Red Springs"},{"zip":"28378","city":"Rex"},{"zip":"28379","city":"Rockingham"},{"zip":"28382","city":"Roseboro"},{"zip":"28383","city":"Rowland"},{"zip":"28384","city":"Saint Pauls"},{"zip":"28385","city":"Salemburg"},{"zip":"28386","city":"Shannon"},{"zip":"28387","city":"Southern Pines"},{"zip":"28390","city":"Spring Lake"},{"zip":"28391","city":"Stedman"},{"zip":"28392","city":"Tar Heel"},{"zip":"28393","city":"Turkey"},{"zip":"28394","city":"Vass"},{"zip":"28395","city":"Wade"},{"zip":"28396","city":"Wagram"},{"zip":"28398","city":"Warsaw"},{"zip":"28399","city":"White Oak"},{"zip":"28401","city":"Wilmington"},{"zip":"28403","city":"Wilmington"},{"zip":"28405","city":"Wilmington"},{"zip":"28409","city":"Wilmington"},{"zip":"28411","city":"Wilmington"},{"zip":"28412","city":"Wilmington"},{"zip":"28420","city":"Ash"},{"zip":"28421","city":"Atkinson"},{"zip":"28422","city":"Bolivia"},{"zip":"28423","city":"Bolton"},{"zip":"28424","city":"Brunswick"},{"zip":"28425","city":"Burgaw"},{"zip":"28428","city":"Carolina Beach"},{"zip":"28429","city":"Castle Hayne"},{"zip":"28430","city":"Cerro Gordo"},{"zip":"28431","city":"Chadbourn"},{"zip":"28432","city":"Clarendon"},{"zip":"28433","city":"Clarkton"},{"zip":"28434","city":"Council"},{"zip":"28435","city":"Currie"},{"zip":"28436","city":"Delco"},{"zip":"28438","city":"Evergreen"},{"zip":"28439","city":"Fair Bluff"},{"zip":"28441","city":"Garland"},{"zip":"28442","city":"Hallsboro"},{"zip":"28443","city":"Hampstead"},{"zip":"28444","city":"Harrells"},{"zip":"28445","city":"Holly Ridge"},{"zip":"28447","city":"Ivanhoe"},{"zip":"28448","city":"Kelly"},{"zip":"28449","city":"Kure Beach"},{"zip":"28450","city":"Lake Waccamaw"},{"zip":"28451","city":"Leland"},{"zip":"28452","city":"Longwood"},{"zip":"28453","city":"Magnolia"},{"zip":"28454","city":"Maple Hill"},{"zip":"28455","city":"Nakina"},{"zip":"28456","city":"Riegelwood"},{"zip":"28457","city":"Rocky Point"},{"zip":"28458","city":"Rose Hill"},{"zip":"28460","city":"Sneads Ferry"},{"zip":"28461","city":"Southport"},{"zip":"28462","city":"Supply"},{"zip":"28463","city":"Tabor City"},{"zip":"28464","city":"Teachey"},{"zip":"28465","city":"Oak Island"},{"zip":"28466","city":"Wallace"},{"zip":"28467","city":"Calabash"},{"zip":"28468","city":"Sunset Beach"},{"zip":"28469","city":"Ocean Isle Beach"},{"zip":"28470","city":"Shallotte"},{"zip":"28472","city":"Whiteville"},{"zip":"28478","city":"Willard"},{"zip":"28479","city":"Winnabow"},{"zip":"28480","city":"Wrightsville Beach"},{"zip":"28501","city":"Kinston"},{"zip":"28504","city":"Kinston"},{"zip":"28508","city":"Albertson"},{"zip":"28509","city":"Alliance"},{"zip":"28510","city":"Arapahoe"},{"zip":"28511","city":"Atlantic"},{"zip":"28512","city":"Atlantic Beach"},{"zip":"28513","city":"Ayden"},{"zip":"28515","city":"Bayboro"},{"zip":"28516","city":"Beaufort"},{"zip":"28518","city":"Beulaville"},{"zip":"28519","city":"Bridgeton"},{"zip":"28520","city":"Cedar Island"},{"zip":"28521","city":"Chinquapin"},{"zip":"28523","city":"Cove City"},{"zip":"28524","city":"Davis"},{"zip":"28525","city":"Deep Run"},{"zip":"28526","city":"Dover"},{"zip":"28527","city":"Ernul"},{"zip":"28528","city":"Gloucester"},{"zip":"28529","city":"Grantsboro"},{"zip":"28530","city":"Grifton"},{"zip":"28531","city":"Harkers Island"},{"zip":"28532","city":"Havelock"},{"zip":"28533","city":"Cherry Point"},{"zip":"28537","city":"Hobucken"},{"zip":"28538","city":"Hookerton"},{"zip":"28539","city":"Hubert"},{"zip":"28540","city":"Jacksonville"},{"zip":"28542","city":"Camp Lejeune"},{"zip":"28543","city":"Tarawa Terrace"},{"zip":"28544","city":"Midway Park"},{"zip":"28546","city":"Jacksonville"},{"zip":"28547","city":"Camp Lejeune"},{"zip":"28551","city":"La Grange"},{"zip":"28552","city":"Lowland"},{"zip":"28553","city":"Marshallberg"},{"zip":"28554","city":"Maury"},{"zip":"28555","city":"Maysville"},{"zip":"28556","city":"Merritt"},{"zip":"28557","city":"Morehead City"},{"zip":"28560","city":"New Bern"},{"zip":"28562","city":"New Bern"},{"zip":"28570","city":"Newport"},{"zip":"28571","city":"Oriental"},{"zip":"28572","city":"Pink Hill"},{"zip":"28573","city":"Pollocksville"},{"zip":"28574","city":"Richlands"},{"zip":"28575","city":"Salter Path"},{"zip":"28577","city":"Sealevel"},{"zip":"28578","city":"Seven Springs"},{"zip":"28579","city":"Smyrna"},{"zip":"28580","city":"Snow Hill"},{"zip":"28581","city":"Stacy"},{"zip":"28582","city":"Stella"},{"zip":"28584","city":"Swansboro"},{"zip":"28585","city":"Trenton"},{"zip":"28586","city":"Vanceboro"},{"zip":"28587","city":"Vandemere"},{"zip":"28589","city":"Williston"},{"zip":"28590","city":"Winterville"},{"zip":"28594","city":"Emerald Isle"},{"zip":"28601","city":"Hickory"},{"zip":"28602","city":"Hickory"},{"zip":"28604","city":"Banner Elk"},{"zip":"28605","city":"Blowing Rock"},{"zip":"28606","city":"Boomer"},{"zip":"28607","city":"Boone"},{"zip":"28609","city":"Catawba"},{"zip":"28610","city":"Claremont"},{"zip":"28611","city":"Collettsville"},{"zip":"28612","city":"Connelly Springs"},{"zip":"28613","city":"Conover"},{"zip":"28615","city":"Creston"},{"zip":"28616","city":"Crossnore"},{"zip":"28617","city":"Crumpler"},{"zip":"28618","city":"Deep Gap"},{"zip":"28619","city":"Drexel"},{"zip":"28621","city":"Elkin"},{"zip":"28622","city":"Elk Park"},{"zip":"28623","city":"Ennice"},{"zip":"28624","city":"Ferguson"},{"zip":"28625","city":"Statesville"},{"zip":"28626","city":"Fleetwood"},{"zip":"28627","city":"Glade Valley"},{"zip":"28628","city":"Glen Alpine"},{"zip":"28629","city":"Glendale Springs"},{"zip":"28630","city":"Granite Falls"},{"zip":"28631","city":"Grassy Creek"},{"zip":"28634","city":"Harmony"},{"zip":"28635","city":"Hays"},{"zip":"28636","city":"Hiddenite"},{"zip":"28637","city":"Hildebran"},{"zip":"28638","city":"Hudson"},{"zip":"28640","city":"Jefferson"},{"zip":"28641","city":"Jonas Ridge"},{"zip":"28642","city":"Jonesville"},{"zip":"28643","city":"Lansing"},{"zip":"28644","city":"Laurel Springs"},{"zip":"28645","city":"Lenoir"},{"zip":"28646","city":"Linville"},{"zip":"28649","city":"McGrady"},{"zip":"28650","city":"Maiden"},{"zip":"28651","city":"Millers Creek"},{"zip":"28652","city":"Minneapolis"},{"zip":"28653","city":"Montezuma"},{"zip":"28654","city":"Moravian Falls"},{"zip":"28655","city":"Morganton"},{"zip":"28657","city":"Newland"},{"zip":"28658","city":"Newton"},{"zip":"28659","city":"North Wilkesboro"},{"zip":"28660","city":"Olin"},{"zip":"28662","city":"Pineola"},{"zip":"28663","city":"Piney Creek"},{"zip":"28664","city":"Plumtree"},{"zip":"28665","city":"Purlear"},{"zip":"28666","city":"Icard"},{"zip":"28667","city":"Rhodhiss"},{"zip":"28668","city":"Roaring Gap"},{"zip":"28669","city":"Roaring River"},{"zip":"28670","city":"Ronda"},{"zip":"28671","city":"Rutherford College"},{"zip":"28672","city":"Scottville"},{"zip":"28673","city":"Sherrills Ford"},{"zip":"28675","city":"Sparta"},{"zip":"28676","city":"State Road"},{"zip":"28677","city":"Statesville"},{"zip":"28678","city":"Stony Point"},{"zip":"28679","city":"Sugar Grove"},{"zip":"28681","city":"Taylorsville"},{"zip":"28682","city":"Terrell"},{"zip":"28683","city":"Thurmond"},{"zip":"28684","city":"Todd"},{"zip":"28685","city":"Traphill"},{"zip":"28689","city":"Union Grove"},{"zip":"28690","city":"Valdese"},{"zip":"28692","city":"Vilas"},{"zip":"28693","city":"Warrensville"},{"zip":"28694","city":"West Jefferson"},{"zip":"28697","city":"Wilkesboro"},{"zip":"28698","city":"Zionville"},{"zip":"28701","city":"Alexander"},{"zip":"28702","city":"Almond"},{"zip":"28704","city":"Arden"},{"zip":"28705","city":"Bakersville"},{"zip":"28707","city":"Balsam"},{"zip":"28708","city":"Balsam Grove"},{"zip":"28709","city":"Barnardsville"},{"zip":"28710","city":"Bat Cave"},{"zip":"28711","city":"Black Mountain"},{"zip":"28712","city":"Brevard"},{"zip":"28713","city":"Bryson City"},{"zip":"28714","city":"Burnsville"},{"zip":"28715","city":"Candler"},{"zip":"28716","city":"Canton"},{"zip":"28717","city":"Cashiers"},{"zip":"28718","city":"Cedar Mountain"},{"zip":"28719","city":"Cherokee"},{"zip":"28720","city":"Chimney Rock"},{"zip":"28721","city":"Clyde"},{"zip":"28722","city":"Columbus"},{"zip":"28723","city":"Cullowhee"},{"zip":"28725","city":"Dillsboro"},{"zip":"28726","city":"East Flat Rock"},{"zip":"28729","city":"Etowah"},{"zip":"28730","city":"Fairview"},{"zip":"28731","city":"Flat Rock"},{"zip":"28732","city":"Fletcher"},{"zip":"28733","city":"Fontana Dam"},{"zip":"28734","city":"Franklin"},{"zip":"28735","city":"Gerton"},{"zip":"28736","city":"Glenville"},{"zip":"28739","city":"Hendersonville"},{"zip":"28740","city":"Green Mountain"},{"zip":"28741","city":"Highlands"},{"zip":"28742","city":"Horse Shoe"},{"zip":"28743","city":"Hot Springs"},{"zip":"28745","city":"Lake Junaluska"},{"zip":"28746","city":"Lake Lure"},{"zip":"28747","city":"Lake Toxaway"},{"zip":"28748","city":"Leicester"},{"zip":"28749","city":"Little Switzerland"},{"zip":"28751","city":"Maggie Valley"},{"zip":"28752","city":"Marion"},{"zip":"28753","city":"Marshall"},{"zip":"28754","city":"Mars Hill"},{"zip":"28755","city":"Micaville"},{"zip":"28756","city":"Mill Spring"},{"zip":"28757","city":"Montreat"},{"zip":"28758","city":"Mountain Home"},{"zip":"28759","city":"Mills River"},{"zip":"28761","city":"Nebo"},{"zip":"28762","city":"Old Fort"},{"zip":"28763","city":"Otto"},{"zip":"28766","city":"Penrose"},{"zip":"28768","city":"Pisgah Forest"},{"zip":"28770","city":"Ridgecrest"},{"zip":"28771","city":"Robbinsville"},{"zip":"28772","city":"Rosman"},{"zip":"28773","city":"Saluda"},{"zip":"28774","city":"Sapphire"},{"zip":"28775","city":"Scaly Mountain"},{"zip":"28777","city":"Spruce Pine"},{"zip":"28778","city":"Swannanoa"},{"zip":"28779","city":"Sylva"},{"zip":"28781","city":"Topton"},{"zip":"28782","city":"Tryon"},{"zip":"28783","city":"Tuckasegee"},{"zip":"28785","city":"Waynesville"},{"zip":"28786","city":"Waynesville"},{"zip":"28787","city":"Weaverville"},{"zip":"28788","city":"Webster"},{"zip":"28789","city":"Whittier"},{"zip":"28790","city":"Zirconia"},{"zip":"28791","city":"Hendersonville"},{"zip":"28792","city":"Hendersonville"},{"zip":"28801","city":"Asheville"},{"zip":"28803","city":"Asheville"},{"zip":"28804","city":"Asheville"},{"zip":"28805","city":"Asheville"},{"zip":"28806","city":"Asheville"},{"zip":"28901","city":"Andrews"},{"zip":"28902","city":"Brasstown"},{"zip":"28904","city":"Hayesville"},{"zip":"28905","city":"Marble"},{"zip":"28906","city":"Murphy"},{"zip":"28909","city":"Warne"}]
